ORBCOMM FM115           
1 41186U 15081H   24220.07040514  .00001709  00000+0  38032-3 0  9991
2 41186  46.9980  91.9960 0000248  40.0749 320.0156 14.60970323461812
ORBCOMM FM108           
1 41187U 15081J   24220.23188691  .00001985  00000+0  47612-3 0  9999
2 41187  47.0038 148.3541 0002819 309.1778  50.8857 14.56808893460999
ORBCOMM FM117           
1 41188U 15081K   24220.06061521  .00001994  00000+0  47843-3 0  9999
2 41188  46.9999 148.0252 0003482 319.1885  40.8739 14.56795164461015
ORBCOMM FM116           
1 41189U 15081L   24220.46059661  .00001013  00000+0  26122-3 0  9995
2 41189  47.0006 235.9593 0001925  12.2953 347.7979 14.56801908459889
